{"type": "FeatureCollection", "features": [ {"type": "Feature", "properties": {"norad_id": 30242, "name": "FENGYUN 1C DEB", "group": "fengyun-1c-debris", "lat": 34.46747628314701, "lon": -148.25956410094972, "alt_km": 832.8837872445811, "timestamp": "2025-12-17T15:50:10.054424+00:00", "meta": {"OBJECT_NAME": "FENGYUN 1C DEB", "OBJECT_ID": "1999-025XB", "EPOCH": "2025-12-17T01:51:35.186976", "MEAN_MOTION": 14.17648459, "ECCENTRICITY": 0.00108972, "INCLINATION": 98.6831, "RA_OF_ASC_NODE": 25.1499, "ARG_OF_PERICENTER": 42.8354, "MEAN_ANOMALY": 11.6651, "EPHEMERIS_TYPE": 0, "CLASSIFICATION_TYPE": "U", "NORAD_CAT_ID": 30242, "ELEMENT_SET_NO": 999, "REV_AT_EPOCH": 97488, "BSTAR": 0.00053392927, "MEAN_MOTION_DOT": 1.044e-05, "MEAN_MOTION_DDOT": 0}, "tle": {"line1": "1 30242U 99025XB  25351.07749059  .00001044  00000+0  53393-3 0  9997", "line2": "2 30242  98.6831  25.1499 0010897  42.8354  11.6651 14.17648459974884"}}, "geometry": {"type": "Point", "coordinates": [-148.25956410094972, 34.46747628314701]}}, {"type": "Feature", "properties": {"norad_id": 30243, "name": "FENGYUN 1C DEB", "group": "fengyun-1c-debris", "lat": 32.46908006038188, "lon": -171.4771868032258, "alt_km": 839.8416959732567, "timestamp": "2025-12-17T15:50:10.054434+00:00", "meta": {"OBJECT_NAME": "FENGYUN 1C DEB", "OBJECT_ID": "1999-025XC", "EPOCH": "2025-12-17T06:43:09.046848", "MEAN_MOTION": 14.13028495, "ECCENTRICITY": 0.00131645, "INCLINATION": 98.693, "RA_OF_ASC_NODE": 2.5673, "ARG_OF_PERICENTER": 107.1788, "MEAN_ANOMALY": 268.4412, "EPHEMERIS_TYPE": 0, "CLASSIFICATION_TYPE": "U", "NORAD_CAT_ID": 30243, "ELEMENT_SET_NO": 999, "REV_AT_EPOCH": 97343, "BSTAR": 0.0003450126, "MEAN_MOTION_DOT": 6.02e-06, "MEAN_MOTION_DDOT": 0}, "tle": {"line1": "1 30243U 99025XC  25351.27996582  .00000602  00000+0  34501-3 0  9994", "line2": "2 30243  98.6930   2.5673 0013164 107.1788 268.4412 14.13028495973439"}}, "geometry": {"type": "Point", "coordinates": [-171.4771868032258, 32.46908006038188]}}, {"type": "Feature", "properties": {"norad_id": 30244, "name": "FENGYUN 1C DEB", "group": "fengyun-1c-debris", "lat": 17.121069670552476, "lon": -121.41182580858857, "alt_km": 841.063494211995, "timestamp": "2025-12-17T15:50:10.054445+00:00", "meta": {"OBJECT_NAME": "FENGYUN 1C DEB", "OBJECT_ID": "1999-025XD", "EPOCH": "2025-12-17T06:09:06.856704", "MEAN_MOTION": 14.15022847, "ECCENTRICITY": 0.00093507, "INCLINATION": 99.1435, "RA_OF_ASC_NODE": 241.0186, "ARG_OF_PERICENTER": 302.2173, "MEAN_ANOMALY": 180.7639, "EPHEMERIS_TYPE": 0, "CLASSIFICATION_TYPE": "U", "NORAD_CAT_ID": 30244, "ELEMENT_SET_NO": 999, "REV_AT_EPOCH": 97410, "BSTAR": 0.00033787156, "MEAN_MOTION_DOT": 6.08e-06, "MEAN_MOTION_DDOT": 0}, "tle": {"line1": "1 30244U 99025XD  25351.25632936  .00000608  00000+0  33787-3 0  9994", "line2": "2 30244  99.1435 241.0186 0009350 302.2173 180.7639 14.15022847974102"}}, "geometry": {"type": "Point", "coordinates": [-121.41182580858857, 17.121069670552476]}}, {"type": "Feature", "properties": {"norad_id": 30245, "name": "FENGYUN 1C DEB", "group": "fengyun-1c-debris", "lat": -60.7032253669125, "lon": 142.76387195708045, "alt_km": 832.8170284619619, "timestamp": "2025-12-17T15:50:10.054456+00:00", "meta": {"OBJECT_NAME": "FENGYUN 1C DEB", "OBJECT_ID": "1999-025XE", "EPOCH": "2025-12-17T05:57:07.200000", "MEAN_MOTION": 13.79079433, "ECCENTRICITY": 0.01929974, "INCLINATION": 98.8891, "RA_OF_ASC_NODE": 338.5725, "ARG_OF_PERICENTER": 238.9157, "MEAN_ANOMALY": 119.2931, "EPHEMERIS_TYPE": 0, "CLASSIFICATION_TYPE": "U", "NORAD_CAT_ID": 30245, "ELEMENT_SET_NO": 999, "REV_AT_EPOCH": 94756, "BSTAR": 0.00093035605, "MEAN_MOTION_DOT": 1.051e-05, "MEAN_MOTION_DDOT": 0}, "tle": {"line1": "1 30245U 99025XE  25351.24800000  .00001051  00000+0  93036-3 0  9999", "line2": "2 30245  98.8891 338.5725 0192997 238.9157 119.2931 13.79079433947567"}}, "geometry": {"type": "Point", "coordinates": [142.76387195708045, -60.7032253669125]}}, {"type": "Feature", "properties": {"norad_id": 30246, "name": "FENGYUN 1C DEB", "group": "fengyun-1c-debris", "lat": -46.884803164378695, "lon": 143.99833196041098, "alt_km": 1317.985545989136, "timestamp": "2025-12-17T15:50:10.054466+00:00", "meta": {"OBJECT_NAME": "FENGYUN 1C DEB", "OBJECT_ID": "1999-025XF", "EPOCH": "2025-12-17T07:24:07.695360", "MEAN_MOTION": 13.37020859, "ECCENTRICITY": 0.03706547, "INCLINATION": 98.6732, "RA_OF_ASC_NODE": 134.316, "ARG_OF_PERICENTER": 88.2548, "MEAN_ANOMALY": 336.7168, "EPHEMERIS_TYPE": 0, "CLASSIFICATION_TYPE": "U", "NORAD_CAT_ID": 30246, "ELEMENT_SET_NO": 999, "REV_AT_EPOCH": 92201, "BSTAR": 0.0002247443, "MEAN_MOTION_DOT": 1.42e-06, "MEAN_MOTION_DDOT": 0}, "tle": {"line1": "1 30246U 99025XF  25351.30842240  .00000142  00000+0  22474-3 0  9997", "line2": "2 30246  98.6732 134.3160 0370654  88.2548 336.7168 13.37020859922016"}}, "geometry": {"type": "Point", "coordinates": [143.99833196041098, -46.884803164378695]}}, {"type": "Feature", "properties": {"norad_id": 30247, "name": "FENGYUN 1C DEB", "group": "fengyun-1c-debris", "lat": 24.801718121602647, "lon": -105.0546673391405, "alt_km": 602.2216369006201, "timestamp": "2025-12-17T15:50:10.054476+00:00", "meta": {"OBJECT_NAME": "FENGYUN 1C DEB", "OBJECT_ID": "1999-025XG", "EPOCH": "2025-12-16T16:57:19.504800", "MEAN_MOTION": 14.5933067, "ECCENTRICITY": 0.01932506, "INCLINATION": 98.2773, "RA_OF_ASC_NODE": 257.8513, "ARG_OF_PERICENTER": 339.8133, "MEAN_ANOMALY": 78.0699, "EPHEMERIS_TYPE": 0, "CLASSIFICATION_TYPE": "U", "NORAD_CAT_ID": 30247, "ELEMENT_SET_NO": 999, "REV_AT_EPOCH": 97340, "BSTAR": 0.0025956818, "MEAN_MOTION_DOT": 0.00015915, "MEAN_MOTION_DDOT": 0}, "tle": {"line1": "1 30247U 99025XG  25350.70647575  .00015915  00000+0  25957-2 0  9997", "line2": "2 30247  98.2773 257.8513 0193250 339.8133  78.0699 14.59330670973405"}}, "geometry": {"type": "Point", "coordinates": [-105.0546673391405, 24.801718121602647]}}, {"type": "Feature", "properties": {"norad_id": 30248, "name": "FENGYUN 1C DEB", "group": "fengyun-1c-debris", "lat": 56.91330441709876, "lon": 162.01433182266044, "alt_km": 685.5786588194396, "timestamp": "2025-12-17T15:50:10.054487+00:00", "meta": {"OBJECT_NAME": "FENGYUN 1C DEB", "OBJECT_ID": "1999-025XH", "EPOCH": "2025-12-16T11:35:46.727808", "MEAN_MOTION": 14.59311399, "ECCENTRICITY": 0.00281818, "INCLINATION": 99.0973, "RA_OF_ASC_NODE": 174.962, "ARG_OF_PERICENTER": 139.5867, "MEAN_ANOMALY": 220.743, "EPHEMERIS_TYPE": 0, "CLASSIFICATION_TYPE": "U", "NORAD_CAT_ID": 30248, "ELEMENT_SET_NO": 999, "REV_AT_EPOCH": 97483, "BSTAR": 0.0027108456, "MEAN_MOTION_DOT": 0.00012852, "MEAN_MOTION_DDOT": 0}, "tle": {"line1": "1 30248U 99025XH  25350.48317972  .00012852  00000+0  27108-2 0  9995", "line2": "2 30248  99.0973 174.9620 0028181 139.5867 220.7430 14.59311399974838"}}, "geometry": {"type": "Point", "coordinates": [162.01433182266044, 56.91330441709876]}}, {"type": "Feature", "properties": {"norad_id": 30249, "name": "FENGYUN 1C DEB", "group": "fengyun-1c-debris", "lat": 77.0777551021309, "lon": 19.884949974146064, "alt_km": 687.498614827633, "timestamp": "2025-12-17T15:50:10.054497+00:00", "meta": {"OBJECT_NAME": "FENGYUN 1C DEB", "OBJECT_ID": "1999-025XJ", "EPOCH": "2025-12-17T01:06:35.589600", "MEAN_MOTION": 14.57794492, "ECCENTRICITY": 0.00266333, "INCLINATION": 98.9581, "RA_OF_ASC_NODE": 155.7925, "ARG_OF_PERICENTER": 27.9221, "MEAN_ANOMALY": 92.7884, "EPHEMERIS_TYPE": 0, "CLASSIFICATION_TYPE": "U", "NORAD_CAT_ID": 30249, "ELEMENT_SET_NO": 999, "REV_AT_EPOCH": 97626, "BSTAR": 0.0026391195, "MEAN_MOTION_DOT": 0.00012095, "MEAN_MOTION_DDOT": 0}, "tle": {"line1": "1 30249U 99025XJ  25351.04624525  .00012095  00000+0  26391-2 0  9996", "line2": "2 30249  98.9581 155.7925 0026633  27.9221  92.7884 14.57794492976267"}}, "geometry": {"type": "Point", "coordinates": [19.884949974146064, 77.0777551021309]}}, {"type": "Feature", "properties": {"norad_id": 30250, "name": "FENGYUN 1C DEB", "group": "fengyun-1c-debris", "lat": -80.23211785458334, "lon": 99.89068125928337, "alt_km": 867.6011346976475, "timestamp": "2025-12-17T15:50:10.054507+00:00", "meta": {"OBJECT_NAME": "FENGYUN 1C DEB", "OBJECT_ID": "1999-025XK", "EPOCH": "2025-12-17T06:05:20.228640", "MEAN_MOTION": 14.01630583, "ECCENTRICITY": 0.00683611, "INCLINATION": 98.7543, "RA_OF_ASC_NODE": 343.0178, "ARG_OF_PERICENTER": 210.5917, "MEAN_ANOMALY": 166.2532, "EPHEMERIS_TYPE": 0, "CLASSIFICATION_TYPE": "U", "NORAD_CAT_ID": 30250, "ELEMENT_SET_NO": 999, "REV_AT_EPOCH": 96555, "BSTAR": 0.00027743381, "MEAN_MOTION_DOT": 3.87e-06, "MEAN_MOTION_DDOT": 0}, "tle": {"line1": "1 30250U 99025XK  25351.25370635  .00000387  00000+0  27743-3 0  9995", "line2": "2 30250  98.7543 343.0178 0068361 210.5917 166.2532 14.01630583965559"}}, "geometry": {"type": "Point", "coordinates": [99.89068125928337, -80.23211785458334]}}, {"type": "Feature", "properties": {"norad_id": 30251, "name": "FENGYUN 1C DEB", "group": "fengyun-1c-debris", "lat": 76.30987033713265, "lon": 51.02852570788619, "alt_km": 816.7759034043875, "timestamp": "2025-12-17T15:50:10.054518+00:00", "meta": {"OBJECT_NAME": "FENGYUN 1C DEB", "OBJECT_ID": "1999-025XL", "EPOCH": "2025-12-17T02:28:06.949344", "MEAN_MOTION": 14.29314535, "ECCENTRICITY": 0.0051619, "INCLINATION": 99.0489, "RA_OF_ASC_NODE": 189.5901, "ARG_OF_PERICENTER": 317.6081, "MEAN_ANOMALY": 157.9887, "EPHEMERIS_TYPE": 0, "CLASSIFICATION_TYPE": "U", "NORAD_CAT_ID": 30251, "ELEMENT_SET_NO": 999, "REV_AT_EPOCH": 98204, "BSTAR": 0.00041957245, "MEAN_MOTION_DOT": 1.035e-05, "MEAN_MOTION_DDOT": 0}, "tle": {"line1": "1 30251U 99025XL  25351.10285821  .00001035  00000+0  41957-3 0  9996", "line2": "2 30251  99.0489 189.5901 0051619 317.6081 157.9887 14.29314535982048"}}, "geometry": {"type": "Point", "coordinates": [51.02852570788619, 76.30987033713265]}}]}